OBJECT_NAME,OBJECT_ID,EPOCH,MEAN_MOTION,ECCENTRICITY,INCLINATION,RA_OF_ASC_NODE,ARG_OF_PERICENTER,MEAN_ANOMALY,EPHEMERIS_TYPE,CLASSIFICATION_TYPE,NORAD_CAT_ID,ELEMENT_SET_NO,REV_AT_EPOCH,BSTAR,MEAN_MOTION_DOT,MEAN_MOTION_DDOT
ZHONGXING-2E,2021-071A,2026-07-13T14:36:58.857984,1.00271078,.00011552,0.0678,232.3606,274.8358,101.5990,0,U,49062,999,1830,0,-.295E-5,0
TJS-7,2021-077A,2026-07-13T14:42:10.380960,1.00269326,.00030052,0.2905,264.0719,107.3197,41.1258,0,U,49115,999,981,0,-.127E-5,0
CHINASAT 9B,2021-080A,2026-07-13T19:04:46.743744,1.00269182,.0002134,0.0298,87.3675,60.2425,171.6562,0,U,49125,999,1791,0,-.317E-5,0
SHIJIAN-21 (SJ-21),2021-094A,2026-07-13T18:38:03.203808,1.00278551,.0051692,5.1737,61.0156,168.9604,109.0472,0,U,49330,999,562,0,-.356E-5,0
SES-17,2021-095A,2026-07-13T13:08:40.181856,1.00268622,.00007197,0.0216,43.6773,73.8656,303.9461,0,U,49332,999,1811,0,-.276E-5,0
SYRACUSE 4A,2021-095B,2026-07-13T10:15:24.190848,1.00269771,.00014786,0.0270,55.9116,51.2438,23.5099,0,U,49333,999,1821,0,0,0
QZS-1R (MICHIBIKI-1R),2021-096A,2026-07-12T13:50:38.812704,1.00245962,.07550099,37.5114,79.2075,272.2000,278.6576,0,U,49336,999,1726,0,-.3E-5,0
ZHONGXING-1D,2021-114A,2026-07-13T17:30:21.304800,1.00269192,.0000623,0.0377,227.1577,26.5397,70.6749,0,U,49505,999,1708,0,-.341E-5,0
STPSAT-6,2021-118A,2026-07-13T14:38:40.715808,1.00269879,.00009985,0.3867,85.1061,238.1545,76.1148,0,U,49817,999,1683,0,-.49E-6,0
EXPRESS AMU-7,2021-123A,2026-07-13T17:34:28.409664,1.00270288,.0000227,0.0287,287.0357,337.4677,75.7074,0,U,50001,999,1680,0,-.248E-5,0
EXPRESS AMU-3,2021-123B,2026-07-12T21:45:15.623712,1.00269131,.0000107,0.0159,17.2256,335.8105,6.9637,0,U,50002,999,729,0,0,0
TIANLIAN 2-02,2021-124A,2026-07-13T14:16:35.332896,1.00270434,.00015968,0.8664,85.6965,162.7409,68.1421,0,U,50005,999,1688,0,-.19E-6,0
TURKSAT 5B,2021-126A,2026-07-13T11:57:10.554912,1.00271883,.00024959,0.0700,338.4739,12.5122,161.6814,0,U,50212,999,1656,0,.142E-5,0
INMARSAT 6-F1,2021-128A,2026-07-13T05:21:38.723040,1.00272319,.000021,0.0151,332.4054,257.5806,225.2787,0,U,50319,999,1652,0,-.174E-5,0
SHIYAN-12 01 (SY-12 01),2021-129A,2026-07-13T17:04:05.088864,1.00050328,.0002604,3.7406,79.5526,284.7957,221.7076,0,U,50321,999,1676,0,.143E-5,0
SHIYAN-12 02 (SY-12 02),2021-129B,2026-07-13T18:00:47.805984,1.00477926,.0003036,3.7398,79.5521,70.3677,161.1938,0,U,50322,999,1676,0,-.367E-5,0
TJS-9,2021-135A,2026-07-13T14:16:38.717184,1.00273049,.00022379,0.0431,105.9151,322.2413,214.7105,0,U,50574,999,1669,0,-.303E-5,0
GOES 18,2022-021A,2026-07-13T14:31:26.409792,1.00269923,.00003959,0.0169,128.3655,67.3955,176.5766,0,U,51850,999,685,0,.93E-6,0
ZHONGXING-6D,2022-038A,2026-07-12T20:16:47.022816,1.00273271,.0000559,0.0309,242.6704,286.3576,190.9625,0,U,52255,999,1567,0,-.354E-5,0
NILESAT 301,2022-061A,2026-07-13T13:25:38.555328,1.00269225,.00034989,0.0464,352.3315,86.5159,47.0271,0,U,52817,999,1500,0,-.62E-6,0
CMS-02 (GSAT-24),2022-067A,2026-07-13T08:43:31.922688,1.00271614,.00006467,0.0188,97.4916,246.9311,160.6994,0,U,52903,999,1487,0,-.168E-5,0
MEASAT 3D,2022-067B,2026-07-13T13:53:56.653152,1.00271713,.00006198,0.0479,307.3214,66.6924,217.4320,0,U,52904,999,1491,0,-.246E-5,0
SES-22,2022-071A,2026-07-13T14:30:48.970080,1.00270762,.00007684,0.0165,5.2470,99.9201,264.9910,0,U,52933,999,778,0,.1E-5,0
WFOV (USA 332),2022-073A,2026-07-13T12:56:38.626080,1.00268031,.00015326,3.7760,78.1944,214.7816,311.8861,0,U,52940,999,1463,0,-.37E-5,0
TIANLIAN 2-03,2022-078A,2026-07-13T13:30:53.052192,1.00273613,.00008582,0.7363,77.4650,5.8097,61.5170,0,U,53100,999,1481,0,.68E-6,0
SBIRS GEO-6 (USA 336),2022-092A,2026-07-13T13:57:13.291776,1.00270627,.00016303,3.2143,317.9197,154.5834,167.2606,0,U,53355,999,1449,0,-.291E-5,0
EUTELSAT KONNECT VHTS,2022-110A,2026-07-13T13:28:38.267328,1.00268795,.0002664,0.0593,98.2835,345.7336,52.2624,0,U,53765,999,710,0,.12E-6,0
ZHONGXING-1E,2022-112A,2026-07-13T17:16:22.645056,1.00272601,.0000925,0.0681,230.0576,51.1342,350.8839,0,U,53813,999,1411,0,-.154E-5,0
SES-20,2022-123A,2026-07-13T14:41:02.988960,1.00269844,.0001764,0.0143,61.7688,31.0884,315.7947,0,U,53960,999,1379,0,-.105E-5,0
SES-21,2022-123B,2026-07-13T14:33:11.243232,1.00268341,.00009519,0.0393,35.4986,75.6707,267.6850,0,U,53961,999,747,0,0,0
GALAXY 33 (G-33),2022-128A,2026-07-13T14:32:33.801792,1.00271597,.00017533,0.0131,21.0448,99.1957,256.3775,0,U,54026,999,1400,0,.75E-6,0
GALAXY 34 (G-34),2022-128B,2026-07-13T12:51:04.367808,1.00270740,.00012837,0.0254,27.9681,107.0516,220.1611,0,U,54027,999,1417,0,0,0
