ZHONGXING-2E            
1 49062U 21071A   26194.60901456 -.00000295  00000+0  00000+0 0  9990
2 49062   0.0678 232.3606 0001155 274.8358 101.5990  1.00271078 18308
TJS-7                   
1 49115U 21077A   26194.61262015 -.00000127  00000+0  00000+0 0  9991
2 49115   0.2905 264.0719 0003005 107.3197  41.1258  1.00269326  9811
CHINASAT 9B             
1 49125U 21080A   26194.79498546 -.00000317  00000+0  00000+0 0  9996
2 49125   0.0298  87.3675 0002134  60.2425 171.6562  1.00269182 17912
SHIJIAN-21 (SJ-21)      
1 49330U 21094A   26194.77642597 -.00000356  00000+0  00000+0 0  9997
2 49330   5.1737  61.0156 0051692 168.9604 109.0472  1.00278551  5625
SES-17                  
1 49332U 21095A   26194.54768729 -.00000276  00000+0  00000+0 0  9992
2 49332   0.0216  43.6773 0000719  73.8656 303.9461  1.00268622 18118
SYRACUSE 4A             
1 49333U 21095B   26194.42736332  .00000000  00000+0  00000+0 0  9999
2 49333   0.0270  55.9116 0001478  51.2438  23.5099  1.00269771 18216
QZS-1R (MICHIBIKI-1R)   
1 49336U 21096A   26193.57683811 -.00000300  00000+0  00000+0 0  9995
2 49336  37.5114  79.2075 0755009 272.2000 278.6576  1.00245962 17263
ZHONGXING-1D            
1 49505U 21114A   26194.72941325 -.00000341  00000+0  00000+0 0  9994
2 49505   0.0377 227.1577 0000623  26.5397  70.6749  1.00269192 17085
STPSAT-6                
1 49817U 21118A   26194.61019347 -.00000049  00000+0  00000+0 0  9997
2 49817   0.3867  85.1061 0000998 238.1545  76.1148  1.00269879 16837
EXPRESS AMU-7           
1 50001U 21123A   26194.73227326 -.00000248  00000+0  00000+0 0  9992
2 50001   0.0287 287.0357 0000227 337.4677  75.7074  1.00270288 16808
EXPRESS AMU-3           
1 50002U 21123B   26193.90643083  .00000000  00000+0  00000+0 0  9998
2 50002   0.0159  17.2256 0000107 335.8105   6.9637  1.00269131  7292
TIANLIAN 2-02           
1 50005U 21124A   26194.59485339 -.00000019  00000+0  00000+0 0  9997
2 50005   0.8664  85.6965 0001596 162.7409  68.1421  1.00270434 16881
TURKSAT 5B              
1 50212U 21126A   26194.49803883  .00000142  00000+0  00000+0 0  9992
2 50212   0.0700 338.4739 0002495  12.5122 161.6814  1.00271883 16564
INMARSAT 6-F1           
1 50319U 21128A   26194.22336485 -.00000174  00000+0  00000+0 0  9998
2 50319   0.0151 332.4054 0000210 257.5806 225.2787  1.00272319 16526
SHIYAN-12 01 (SY-12 01) 
1 50321U 21129A   26194.71117001  .00000143  00000+0  00000+0 0  9992
2 50321   3.7406  79.5526 0002604 284.7957 221.7076  1.00050328 16765
SHIYAN-12 02 (SY-12 02) 
1 50322U 21129B   26194.75055331 -.00000367  00000+0  00000+0 0  9993
2 50322   3.7398  79.5521 0003036  70.3677 161.1938  1.00477926 16760
TJS-9                   
1 50574U 21135A   26194.59489256 -.00000303  00000+0  00000+0 0  9998
2 50574   0.0431 105.9151 0002237 322.2413 214.7105  1.00273049 16692
GOES 18                 
1 51850U 22021A   26194.60516678  .00000093  00000+0  00000+0 0  9997
2 51850   0.0169 128.3655 0000395  67.3955 176.5766  1.00269923  6858
ZHONGXING-6D            
1 52255U 22038A   26193.84498869 -.00000354  00000+0  00000+0 0  9992
2 52255   0.0309 242.6704 0000559 286.3576 190.9625  1.00273271 15678
NILESAT 301             
1 52817U 22061A   26194.55947402 -.00000062  00000+0  00000+0 0  9999
2 52817   0.0464 352.3315 0003498  86.5159  47.0271  1.00269225 15003
CMS-02 (GSAT-24)        
1 52903U 22067A   26194.36356392 -.00000168  00000+0  00000+0 0  9999
2 52903   0.0188  97.4916 0000646 246.9311 160.6994  1.00271614 14873
MEASAT 3D               
1 52904U 22067B   26194.57912793 -.00000246  00000+0  00000+0 0  9993
2 52904   0.0479 307.3214 0000619  66.6924 217.4320  1.00271713 14917
SES-22                  
1 52933U 22071A   26194.60473345  .00000100  00000+0  00000+0 0  9997
2 52933   0.0165   5.2470 0000768  99.9201 264.9910  1.00270762  7783
WFOV (USA 332)          
1 52940U 22073A   26194.53933595 -.00000370  00000+0  00000+0 0  9997
2 52940   3.7760  78.1944 0001532 214.7816 311.8861  1.00268031 14631
TIANLIAN 2-03           
1 53100U 22078A   26194.56311403  .00000068  00000+0  00000+0 0  9995
2 53100   0.7363  77.4650 0000858   5.8097  61.5170  1.00273613 14816
SBIRS GEO-6 (USA 336)   
1 53355U 22092A   26194.58140384 -.00000291  00000+0  00000+0 0  9992
2 53355   3.2143 317.9197 0001630 154.5834 167.2606  1.00270627 14494
EUTELSAT KONNECT VHTS   
1 53765U 22110A   26194.56155402  .00000012  00000+0  00000+0 0  9993
2 53765   0.0593  98.2835 0002664 345.7336  52.2624  1.00268795  7106
ZHONGXING-1E            
1 53813U 22112A   26194.71970654 -.00000154  00000+0  00000+0 0  9998
2 53813   0.0681 230.0576 0000925  51.1342 350.8839  1.00272601 14114
SES-20                  
1 53960U 22123A   26194.61184015 -.00000105  00000+0  00000+0 0  9996
2 53960   0.0143  61.7688 0001764  31.0884 315.7947  1.00269844 13791
SES-21                  
1 53961U 22123B   26194.60638013  .00000000  00000+0  00000+0 0  9991
2 53961   0.0393  35.4986 0000951  75.6707 267.6850  1.00268341  7470
GALAXY 33 (G-33)        
1 54026U 22128A   26194.60594678  .00000075  00000+0  00000+0 0  9999
2 54026   0.0131  21.0448 0001753  99.1957 256.3775  1.00271597 14001
GALAXY 34 (G-34)        
1 54027U 22128B   26194.53546722  .00000000  00000+0  00000+0 0  9997
2 54027   0.0254  27.9681 0001283 107.0516 220.1611  1.00270740 14175
